start=new Date('2023-06-07T00:00:00.000Z').valueOf();
sats=[{"COUNTRY_CODE":"US","MEAN_MOTION_DOT":"-0.00000969","OBJECT_TYPE":"PAYLOAD","MEAN_MOTION":"15.08842547","PERIAPSIS":"538.889","ELEMENT_SET_NO":"999","FILE":"3926325","OBJECT_NAME":"STARLINK-5099","SEMIMAJOR_AXIS":"6917.873","GP_ID":"233327584","REF_FRAME":"TEME","MEAN_ELEMENT_THEORY":"SGP4","INCLINATION":"53.2181","EPHEMERIS_TYPE":"0","REV_AT_EPOCH":"3734","SITE":"AFWTR","BSTAR":"-0.00004281000000","ECCENTRICITY":"0.00012260","EPOCH":"2023-06-06T00:22:56.335584","DECAY_DATE":null,"CENTER_NAME":"EARTH","LAUNCH_DATE":"2022-10-05","CLASSIFICATION_TYPE":"U","PERIOD":"95.437","TIME_SYSTEM":"UTC","MEAN_MOTION_DDOT":"0.0000000000000","TLE_LINE1":"1 54009U 22125AX  23157.01592981 -.00000969  00000-0 -42810-4 0  9998","RCS_SIZE":"LARGE","MEAN_ANOMALY":"271.2799","RA_OF_ASC_NODE":"57.3483","APOAPSIS":"540.586","ARG_OF_PERICENTER":"88.8334","OBJECT_ID":"2022-125AX","TLE_LINE2":"2 54009  53.2181  57.3483 0001226  88.8334 271.2799 15.08842547 37343","NORAD_CAT_ID":"54009"},{"REV_AT_EPOCH":"3760","EPHEMERIS_TYPE":"0","INCLINATION":"53.2186","MEAN_ELEMENT_THEORY":"SGP4","REF_FRAME":"TEME","GP_ID":"233359667","OBJECT_NAME":"STARLINK-5127","SEMIMAJOR_AXIS":"6917.894","ELEMENT_SET_NO":"999","FILE":"3926571","PERIAPSIS":"539.054","MEAN_MOTION":"15.08835697","OBJECT_TYPE":"PAYLOAD","COUNTRY_CODE":"US","MEAN_MOTION_DOT":"0.00000226","NORAD_CAT_ID":"54010","TLE_LINE2":"2 54010  53.2186  43.7782 0001018  73.5761 286.5343 15.08835697 37606","OBJECT_ID":"2022-125AY","ARG_OF_PERICENTER":"73.5761","APOAPSIS":"540.463","RA_OF_ASC_NODE":"43.7782","MEAN_ANOMALY":"286.5343","RCS_SIZE":"LARGE","TLE_LINE1":"1 54010U 22125AY  23157.80437083  .00000226  00000-0  32269-4 0  9999","MEAN_MOTION_DDOT":"0.0000000000000","TIME_SYSTEM":"UTC","PERIOD":"95.438","CLASSIFICATION_TYPE":"U","LAUNCH_DATE":"2022-10-05","CENTER_NAME":"EARTH","EPOCH":"2023-06-06T19:18:17.639712","DECAY_DATE":null,"ECCENTRICITY":"0.00010180","SITE":"AFWTR","BSTAR":"0.00003226900000"},{"ECCENTRICITY":"0.00012730","SITE":"AFWTR","BSTAR":"0.00000471660000","DECAY_DATE":null,"EPOCH":"2023-06-05T23:57:51.923232","CENTER_NAME":"EARTH","LAUNCH_DATE":"2022-10-05","CLASSIFICATION_TYPE":"U","PERIOD":"95.437","TIME_SYSTEM":"UTC","MEAN_MOTION_DDOT":"0.0000000000000","TLE_LINE1":"1 54011U 22125AZ  23156.99851763 -.00000213  00000-0  47166-5 0  9994","RCS_SIZE":"LARGE","MEAN_ANOMALY":"269.3064","RA_OF_ASC_NODE":"47.9733","APOAPSIS":"540.622","ARG_OF_PERICENTER":"90.8074","OBJECT_ID":"2022-125AZ","NORAD_CAT_ID":"54011","TLE_LINE2":"2 54011  53.2174  47.9733 0001273  90.8074 269.3064 15.08841265 37470","COUNTRY_CODE":"US","MEAN_MOTION_DOT":"-0.00000213","OBJECT_TYPE":"PAYLOAD","MEAN_MOTION":"15.08841265","PERIAPSIS":"538.861","FILE":"3926325","ELEMENT_SET_NO":"999","SEMIMAJOR_AXIS":"6917.877","OBJECT_NAME":"STARLINK-5124","GP_ID":"233326587","REF_FRAME":"TEME","MEAN_ELEMENT_THEORY":"SGP4","INCLINATION":"53.2174","EPHEMERIS_TYPE":"0","REV_AT_EPOCH":"3747"},{"NORAD_CAT_ID":"54012","TLE_LINE2":"2 54012  53.2173  43.9477 0001090  90.3729 269.7388 15.08840855 37602","APOAPSIS":"540.497","ARG_OF_PERICENTER":"90.3729","OBJECT_ID":"2022-125BA","RA_OF_ASC_NODE":"43.9477","RCS_SIZE":"LARGE","MEAN_ANOMALY":"269.7388","PERIOD":"95.438","TIME_SYSTEM":"UTC","TLE_LINE1":"1 54012U 22125BA  23157.83384396 -.00000444  00000-0 -97879-5 0  9995","MEAN_MOTION_DDOT":"0.0000000000000","LAUNCH_DATE":"2022-10-05","CLASSIFICATION_TYPE":"U","DECAY_DATE":null,"EPOCH":"2023-06-06T20:00:44.118144","CENTER_NAME":"EARTH","BSTAR":"-0.00000978790000","SITE":"AFWTR","ECCENTRICITY":"0.00010900","INCLINATION":"53.2173","EPHEMERIS_TYPE":"0","REV_AT_EPOCH":"3760","MEAN_ELEMENT_THEORY":"SGP4","REF_FRAME":"TEME","GP_ID":"233358666","PERIAPSIS":"538.989","FILE":"3926571","ELEMENT_SET_NO":"999","SEMIMAJOR_AXIS":"6917.878","OBJECT_NAME":"STARLINK-5126","OBJECT_TYPE":"PAYLOAD","MEAN_MOTION":"15.08840855","MEAN_MOTION_DOT":"-0.00000444","COUNTRY_CODE":"US"},{"DECAY_DATE":null,"EPOCH":"2023-06-06T02:42:05.614272","CENTER_NAME":"EARTH","SITE":"AFWTR","BSTAR":"0.00004934300000","ECCENTRICITY":"0.00013360","PERIOD":"95.437","TIME_SYSTEM":"UTC","TLE_LINE1":"1 54013U 22125BB  23157.11256498  .00000498  00000-0  49343-4 0  9997","MEAN_MOTION_DDOT":"0.0000000000000","LAUNCH_DATE":"2022-10-05","CLASSIFICATION_TYPE":"U","RA_OF_ASC_NODE":"47.2650","RCS_SIZE":"LARGE","MEAN_ANOMALY":"273.0485","TLE_LINE2":"2 54013  53.2192  47.2650 0001336  87.0660 273.0485 15.08849773 37495","NORAD_CAT_ID":"54013","APOAPSIS":"540.640","ARG_OF_PERICENTER":"87.0660","OBJECT_ID":"2022-125BB","OBJECT_TYPE":"PAYLOAD","MEAN_MOTION":"15.08849773","MEAN_MOTION_DOT":"0.00000498","COUNTRY_CODE":"US","GP_ID":"233327085","PERIAPSIS":"538.791","ELEMENT_SET_NO":"999","FILE":"3926325","SEMIMAJOR_AXIS":"6917.851","OBJECT_NAME":"STARLINK-5098","MEAN_ELEMENT_THEORY":"SGP4","REF_FRAME":"TEME","INCLINATION":"53.2192","EPHEMERIS_TYPE":"0","REV_AT_EPOCH":"3749"},{"INCLINATION":"53.2177","REV_AT_EPOCH":"3759","EPHEMERIS_TYPE":"0","MEAN_ELEMENT_THEORY":"SGP4","REF_FRAME":"TEME","GP_ID":"233359168","ELEMENT_SET_NO":"999","FILE":"3926571","PERIAPSIS":"539.013","OBJECT_NAME":"STARLINK-5116","SEMIMAJOR_AXIS":"6917.885","OBJECT_TYPE":"PAYLOAD","MEAN_MOTION":"15.08838488","MEAN_MOTION_DOT":"-0.00000719","COUNTRY_CODE":"US","NORAD_CAT_ID":"54014","TLE_LINE2":"2 54014  53.2177  44.2695 0001065  93.1362 266.9752 15.08838488 37591","ARG_OF_PERICENTER":"93.1362","APOAPSIS":"540.487","OBJECT_ID":"2022-125BC","RA_OF_ASC_NODE":"44.2695","RCS_SIZE":"LARGE","MEAN_ANOMALY":"266.9752","PERIOD":"95.438","MEAN_MOTION_DDOT":"0.0000000000000","TLE_LINE1":"1 54014U 22125BC  23157.77128996 -.00000719  00000-0 -27095-4 0  9999","TIME_SYSTEM":"UTC","LAUNCH_DATE":"2022-10-05","CLASSIFICATION_TYPE":"U","EPOCH":"2023-06-06T18:30:39.452544","DECAY_DATE":null,"CENTER_NAME":"EARTH","SITE":"AFWTR","ECCENTRICITY":"0.00010650","BSTAR":"-0.00002709500000"},{"COUNTRY_CODE":"US","MEAN_MOTION_DOT":"0.00000749","OBJECT_TYPE":"PAYLOAD","MEAN_MOTION":"15.08849555","ELEMENT_SET_NO":"999","FILE":"3926325","PERIAPSIS":"538.848","OBJECT_NAME":"STARLINK-5055","SEMIMAJOR_AXIS":"6917.851","GP_ID":"233327087","REF_FRAME":"TEME","MEAN_ELEMENT_THEORY":"SGP4","INCLINATION":"53.2178","REV_AT_EPOCH":"3749","EPHEMERIS_TYPE":"0","SITE":"AFWTR","ECCENTRICITY":"0.00012550","BSTAR":"0.00006511400000","EPOCH":"2023-06-06T02:20:52.111968","DECAY_DATE":null,"CENTER_NAME":"EARTH","LAUNCH_DATE":"2022-10-05","CLASSIFICATION_TYPE":"U","PERIOD":"95.437","MEAN_MOTION_DDOT":"0.0000000000000","TLE_LINE1":"1 54015U 22125BD  23157.09782537  .00000749  00000-0  65114-4 0  9997","TIME_SYSTEM":"UTC","RCS_SIZE":"LARGE","MEAN_ANOMALY":"269.4260","RA_OF_ASC_NODE":"47.1705","ARG_OF_PERICENTER":"90.6876","APOAPSIS":"540.584","OBJECT_ID":"2022-125BD","TLE_LINE2":"2 54015  53.2178  47.1705 0001255  90.6876 269.4260 15.08849555 37498","NORAD_CAT_ID":"54015"},{"REV_AT_EPOCH":"3478","EPHEMERIS_TYPE":"0","INCLINATION":"53.2160","MEAN_ELEMENT_THEORY":"SGP4","REF_FRAME":"TEME","GP_ID":"233328089","OBJECT_NAME":"STARLINK-5195","SEMIMAJOR_AXIS":"6917.884","FILE":"3926325","ELEMENT_SET_NO":"999","PERIAPSIS":"538.991","MEAN_MOTION":"15.08838818","OBJECT_TYPE":"PAYLOAD","MEAN_MOTION_DOT":"0.00000034","COUNTRY_CODE":"US","NORAD_CAT_ID":"54051","TLE_LINE2":"2 54051  53.2160 185.9794 0001095  89.1179 270.9938 15.08838818 34787","OBJECT_ID":"2022-136A","ARG_OF_PERICENTER":"89.1179","APOAPSIS":"540.507","RA_OF_ASC_NODE":"185.9794","MEAN_ANOMALY":"270.9938","RCS_SIZE":"LARGE","MEAN_MOTION_DDOT":"0.0000000000000","TLE_LINE1":"1 54051U 22136A   23157.46404776  .00000034  00000-0  20211-4 0  9992","TIME_SYSTEM":"UTC","PERIOD":"95.438","CLASSIFICATION_TYPE":"U","LAUNCH_DATE":"2022-10-20","CENTER_NAME":"EARTH","DECAY_DATE":null,"EPOCH":"2023-06-06T11:08:13.726464","BSTAR":"0.00002021100000","SITE":"AFETR","ECCENTRICITY":"0.00010950"},{"REF_FRAME":"TEME","MEAN_ELEMENT_THEORY":"SGP4","INCLINATION":"53.2156","EPHEMERIS_TYPE":"0","REV_AT_EPOCH":"3533","MEAN_MOTION_DOT":"0.00000369","COUNTRY_CODE":"US","OBJECT_TYPE":"PAYLOAD","MEAN_MOTION":"15.08839462","PERIAPSIS":"539.021","ELEMENT_SET_NO":"999","FILE":"3926325","OBJECT_NAME":"STARLINK-5189","SEMIMAJOR_AXIS":"6917.882","GP_ID":"233328093","RCS_SIZE":"LARGE","MEAN_ANOMALY":"277.6628","RA_OF_ASC_NODE":"146.0578","APOAPSIS":"540.473","ARG_OF_PERICENTER":"82.4483","OBJECT_ID":"2022-136B","TLE_LINE2":"2 54052  53.2156 146.0578 0001049  82.4483 277.6628 15.08839462 35332","NORAD_CAT_ID":"54052","BSTAR":"0.00004128200000","SITE":"AFETR","ECCENTRICITY":"0.00010490","DECAY_DATE":null,"EPOCH":"2023-06-06T08:23:52.411488","CENTER_NAME":"EARTH","LAUNCH_DATE":"2022-10-20","CLASSIFICATION_TYPE":"U","PERIOD":"95.438","TIME_SYSTEM":"UTC","MEAN_MOTION_DDOT":"0.0000000000000","TLE_LINE1":"1 54052U 22136B   23157.34991217  .00000369  00000-0  41282-4 0  9993"},{"COUNTRY_CODE":"US","MEAN_MOTION_DOT":"-0.00000769","MEAN_MOTION":"15.08836605","OBJECT_TYPE":"PAYLOAD","SEMIMAJOR_AXIS":"6917.891","OBJECT_NAME":"STARLINK-5176","ELEMENT_SET_NO":"999","FILE":"3926325","PERIAPSIS":"539.052","GP_ID":"233328343","REF_FRAME":"TEME","MEAN_ELEMENT_THEORY":"SGP4","REV_AT_EPOCH":"3478","EPHEMERIS_TYPE":"0","INCLINATION":"53.2159","SITE":"AFETR","BSTAR":"-0.00003025400000","ECCENTRICITY":"0.00010180","CENTER_NAME":"EARTH","EPOCH":"2023-06-06T11:02:55.625856","DECAY_DATE":null,"CLASSIFICATION_TYPE":"U","LAUNCH_DATE":"2022-10-20","MEAN_MOTION_DDOT":"0.0000000000000","TLE_LINE1":"1 54053U 22136C   23157.46036604 -.00000769  00000-0 -30254-4 0  9990","TIME_SYSTEM":"UTC","PERIOD":"95.438","MEAN_ANOMALY":"275.3169","RCS_SIZE":"LARGE","RA_OF_ASC_NODE":"185.9567","OBJECT_ID":"2022-136C","ARG_OF_PERICENTER":"84.7939","APOAPSIS":"540.460","NORAD_CAT_ID":"54053","TLE_LINE2":"2 54053  53.2159 185.9567 0001018  84.7939 275.3169 15.08836605 34782"}];
